CUTE-1 (CO-55)          
1 27844U 03031E   26191.00816836  .00000182  00000+0  97603-4 0  9992
2 27844  98.6739 199.2802 0010718 116.0719 244.1564 14.24349450194929
CUBESAT XI-IV (CO-57)   
1 27848U 03031J   26190.51611381  .00000164  00000+0  91111-4 0  9997
2 27848  98.6771 198.4889 0010342 134.3964 225.8063 14.23632552194559
CUBESAT XI-V            
1 28895U 05043F   26191.36800381  .00000898  00000+0  14887-3 0  9997
2 28895  98.3010 347.4805 0015096 129.3634 230.8913 14.72694805105160
CUTE-1.7+APD II (CO-65) 
1 32785U 08021C   26191.84649911  .00002933  00000+0  18628-3 0  9991
2 32785  97.8285 173.7622 0007356 317.1063  42.9591 15.09673937988764
CANX-2                  
1 32790U 08021H   26191.41480104  .00002555  00000+0  18070-3 0  9998
2 32790  97.8654 171.6476 0009255 335.2716  24.8065 15.05787205988305
SEEDS II (CO-66)        
1 32791U 08021J   26191.43592964  .00013245  00000+0  41058-3 0  9999
2 32791  97.7526 190.4573 0002534 167.6964 192.4340 15.33559548990854
SWISSCUBE               
1 35932U 09051B   26191.22499737  .00000600  00000+0  12813-3 0  9992
2 35932  98.4015  99.5130 0007597 132.4528 227.7317 14.62525191892522
BEESAT-1                
1 35933U 09051C   26190.56195696  .00000529  00000+0  11590-3 0  9997
2 35933  98.3943  98.4270 0005799 144.7622 215.3963 14.61756321892450
ITUPSAT1                
1 35935U 09051E   26191.18906354  .00000448  00000+0  10253-3 0  9994
2 35935  98.4025  98.2308 0007739 157.5053 202.6487 14.60474362892091
TISAT 1                 
1 36799U 10035E   26191.30192136  .00014975  00000+0  47786-3 0  9997
2 36799  98.0701 139.9178 0004139 129.6791 230.4814 15.32608332871248
STRAND-1                
1 39090U 13009E   26191.44882477  .00000176  00000+0  73431-4 0  9992
2 39090  98.3931  11.1117 0009149 154.2343 205.9301 14.37177134700402
BRITE-AUSTRIA           
1 39091U 13009F   26190.98422785  .00000106  00000+0  50637-4 0  9999
2 39091  98.4005   9.8568 0010453 165.5592 194.5896 14.36551135700320
NEE-01 PEGASO           
1 39151U 13018B   26190.63966526  .00001233  00000+0  12199-3 0  9996
2 39151  98.1250 335.5366 0013875  90.6498 269.6310 14.93776228714050
POPACS 2                
1 39269U 13055E   26190.24884197  .00014766 -88151-6  24179-3 0  9994
2 39269  80.9909 118.9327 0415457 122.9592 241.2292 14.91853625666502
POPACS 3                
1 39270U 13055F   26191.75284994  .00009026  00000+0  21390-3 0  9996
2 39270  80.9987 203.6259 0549328 358.2288   1.6941 14.56583988641984
ZACUBE-1 (TSHEPISOSAT)  
1 39417U 13066B   26191.46915967  .00001650  00000+0  13060-3 0  9990
2 39417  97.8014 153.9218 0043741 170.3489 189.8585 15.01316108684227
WNISAT-1                
1 39423U 13066H   26191.33787599  .00000802  00000+0  15356-3 0  9999
2 39423  97.7228 338.8542 0163562 158.5388 202.2775 14.58113098670101
TRITON-1                
1 39427U 13066M   26191.59346133  .00001782  00000+0  21705-3 0  9999
2 39427  97.8225 100.8660 0090221 156.9842 203.5453 14.81787752677552
GOMX-1                  
1 39430U 13066Q   26191.60927013  .00001009  00000+0  15749-3 0  9990
2 39430  97.6478  30.5941 0128735   2.9471 357.2465 14.69535778673354
CUBEBUG-2 (LO-74)       
1 39440U 13066AA  26191.30584118  .00001961  00000+0  18439-3 0  9999
2 39440  97.8906 140.3858 0056121 311.9936  47.6511 14.93948233680449
NEE-02 KRYSAOR          
1 39441U 13066AB  26191.29487828  .00001559  00000+0  17498-3 0  9995
2 39441  97.8892 130.3465 0065849 355.4507   4.6102 14.86726426679639
FUNCUBE-1 (AO-73)       
1 39444U 13066AE  26190.85804882  .00005139  00000+0  31713-3 0  9996
2 39444  97.8287 162.7825 0037818 124.9796 235.4993 15.09776510683084
UWE-3                   
1 39446U 13066AG  26191.34114674  .00002018  00000+0  17603-3 0  9991
2 39446  97.8693 147.5751 0047541 241.4844 118.1586 14.97180749681047
BRITE-CA1 (TORONTO)     
1 40020U 14033L   26190.18755172  .00000733  00000+0  11766-3 0  9997
2 40020  97.9764 318.7133 0078005 205.5751 154.1590 14.72715027645456
DUCHIFAT-1              
1 40021U 14033M   26191.13669082  .00116517  00000+0  96018-3 0  9999
2 40021  98.0434 253.6137 0001846 252.3958 107.7101 15.70000067659347
NANOSATC-BR1            
1 40024U 14033Q   26191.06847893  .00012417  00000+0  40165-3 0  9998
2 40024  98.0721 225.4947 0005299 109.2883 250.8931 15.32216392657480
QB50P1                  
1 40025U 14033R   26191.28050615  .00005444  00000+0  26647-3 0  9992
2 40025  98.0969 204.0508 0010055 139.1601 221.0386 15.18618170656530
QB50P2                  
1 40032U 14033Y   26190.81602461  .00005365  00000+0  28728-3 0  9994
2 40032  98.0761 189.1099 0009314  98.7744 261.4542 15.15461423656097
PERSEUS-M2              
1 40037U 14033AD  26191.81493285  .00001385  00000+0  13026-3 0  9995
2 40037  97.9967 142.8378 0010646 214.5007 145.5523 14.95579646654312
PERSEUS-M1              
1 40039U 14033AF  26191.58530649  .00001229  00000+0  11578-3 0  9994
2 40039  97.9649 136.1031 0010660 213.1165 146.9389 14.95703980654134
